IRIDIUM 8 [+]           
1 24792U 97020A   15336.55350950  .00000186  00000-0  59215-4 0  9993
2 24792  86.3980 193.8654 0002030  88.5237 271.6191 14.34216850972553
IRIDIUM 7 [+]           
1 24793U 97020B   15336.54716623  .00000180  00000-0  57344-4 0  9991
2 24793  86.3984 194.1199 0002002  87.0919 273.0506 14.34217164972551
IRIDIUM 6 [+]           
1 24794U 97020C   15336.54070359  .00000185  00000-0  58890-4 0  9993
2 24794  86.3982 194.0658 0002112  84.4280 275.7157 14.34216671972556
IRIDIUM 5 [+]           
1 24795U 97020D   15336.32518338  .00000218  00000-0  70937-4 0  9997
2 24795  86.3971 194.2103 0001860  83.6001 276.5407 14.34216884972602
IRIDIUM 4 [-]           
1 24796U 97020E   15336.52533296  .00000213  00000-0  68000-4 0  9993
2 24796  86.3977 193.3946 0002138  89.7735 320.2267 14.35014624972615
IRIDIUM 914 [-]         
1 24836U 97030A   15336.06244238  .00000198  00000-0  58335-4 0  9995
2 24836  86.3968 211.8351 0003074 117.7186  18.4662 14.38616123967982
IRIDIUM 12 [+]          
1 24837U 97030B   15336.08821694  .00000298  00000-0  99222-4 0  9996
2 24837  86.3988 225.4401 0001984  84.7021  49.5418 14.34217513966238
IRIDIUM 10 [+]          
1 24839U 97030D   15336.07555071  .00000312  00000-0  10427-3 0  9996
2 24839  86.3988 225.4285 0002013  85.1495  49.2081 14.34217999966246
IRIDIUM 13 [+]          
1 24840U 97030E   15336.44142390  .00000292  00000-0  97144-4 0  9994
2 24840  86.3988 225.4038 0001859  87.4141  36.6422 14.34218079966287
IRIDIUM 16 [-]          
1 24841U 97030F   15336.42554544  .00000206  00000-0  63235-4 0  9990
2 24841  86.4067 225.6355 0002239  25.3033 334.8273 14.36582192966789
IRIDIUM 911 [-]         
1 24842U 97030G   15336.44501391  .00000264  00000-0  70273-4 0  9999
2 24842  86.4495 226.7382 0015289 152.2943 335.1928 14.44775788971686
IRIDIUM 15 [+]          
1 24869U 97034A   15335.85713334  .00000039  00000-0  69453-5 0  9997
2 24869  86.3975 257.2509 0002113  82.5268 314.6493 14.34213434963172
IRIDIUM 17 [-]          
1 24870U 97034B   15336.52948012  .00000231  00000-0  73242-4 0  9991
2 24870  86.3985 255.8551 0001214  99.1140  16.0303 14.35604475963432
IRIDIUM 920 [-]         
1 24871U 97034C   15336.51585145  .00000223  00000-0  65176-4 0  9993
2 24871  86.4002 243.4040 0013128  39.0195  61.3170 14.39339065965419
IRIDIUM 18 [+]          
1 24872U 97034D   15336.50959247  .00000313  00000-0  10480-3 0  9998
2 24872  86.3980 257.2038 0002126  80.1051 280.0384 14.34214209963263
IRIDIUM 921 [-]         
1 24873U 97034E   15336.34891138  .00003084  00000-0  19014-3 0  9995
2 24873  86.3942 331.6696 0005261 294.3046 198.1851 15.09562019  3132
IRIDIUM 26 [-]          
1 24903U 97043A   15336.31457325  .00000210  00000-0  66836-4 0  9995
2 24903  86.3958 130.4708 0002116  86.3456 320.9593 14.35133455957246
IRIDIUM 25 [+]          
1 24904U 97043B   15336.31832561  .00000070  00000-0  18107-4 0  9997
2 24904  86.3953 130.7650 0002022  88.1176 272.0251 14.34215871957145
IRIDIUM 46 [+]          
1 24905U 97043C   15336.54031604  .00000063  00000-0  15506-4 0  9994
2 24905  86.3962 131.1742 0002098  90.9338 269.2098 14.34216004957187
IRIDIUM 23 [S]          
1 24906U 97043D   15336.07206175  .00000065  00000-0  16263-4 0  9993
2 24906  86.3966 130.8306 0002153  89.4408  47.2720 14.34215846957120
IRIDIUM 22 [+]          
1 24907U 97043E   15336.30873639  .00000018  00000-0 -66961-6 0  9996
2 24907  86.3964 131.3722 0001959  88.2842 320.5651 14.34215978957158
DUMMY MASS 1 [-]        
1 24925U 97048A   15335.47660193  .00000257  00000-0  26888-4 0  9993
2 24925  86.3338 303.2569 0005220 220.2796 139.8041 14.85018446987922
DUMMY MASS 2 [-]        
1 24926U 97048B   15336.52689003  .00000234  00000-0  24348-4 0  9996
2 24926  86.3339 303.7962 0005898 226.7852 247.1498 14.84787943987946
IRIDIUM 29 [-]          
1 24944U 97051A   15336.43523894  .00000234  00000-0  76125-4 0  9995
2 24944  86.3961 162.2736 0002190  96.7036 263.4410 14.34518821953754
IRIDIUM 32 [+]          
1 24945U 97051B   15336.53740426  .00000032  00000-0  44834-5 0  9998
2 24945  86.3960 162.3218 0002071  89.5908 270.5525 14.34217753953774
IRIDIUM 33 [-]          
1 24946U 97051C   15336.51580891  .00000175  00000-0  56236-4 0  9991
2 24946  86.3876 162.2403 0005836 278.9447 160.0557 14.33439915953436
IRIDIUM 28 [-]          
1 24948U 97051E   15336.53188120  .00000187  00000-0  58304-4 0  9995
2 24948  86.3965 161.7840 0001900  79.9929 304.0625 14.35420183953860
IRIDIUM 30 [+]          
1 24949U 97051F   15336.46129288  .00000037  00000-0  59860-5 0  9991
2 24949  86.3962 162.4407 0002128  88.2175 271.9264 14.34217892953742
IRIDIUM 31 [+]          
1 24950U 97051G   15336.52471762  .00000042  00000-0  80496-5 0  9992
2 24950  86.3961 162.4149 0001985  93.4325 266.7097 14.34218069953766
IRIDIUM 19 [+]          
1 24965U 97056A   15336.29979902  .00000187  00000-0  59607-4 0  9995
2 24965  86.3982 193.9782 0001996  87.2989 272.8435 14.34220675951876
IRIDIUM 35 [+]          
1 24966U 97056B   15336.52179771  .00000196  00000-0  62893-4 0  9999
2 24966  86.3980 193.8836 0002001  86.7348 273.4077 14.34217046951883
IRIDIUM 36 [-]          
1 24967U 97056C   15336.55543756  .00000165  00000-0  50536-4 0  9998
2 24967  86.3991 193.3629 0001969  93.0952 285.8672 14.35466738952159
IRIDIUM 37 [+]          
1 24968U 97056D   15336.56619750  .00000089  00000-0  24797-4 0  9993
2 24968  86.3981 194.0349 0002042  87.8066 272.3364 14.34217404951898
IRIDIUM 34 [+]          
1 24969U 97056E   15336.37592936  .00000201  00000-0  64853-4 0  9992
2 24969  86.3983 194.0519 0001960  87.6719 272.4701 14.34219643951861
IRIDIUM 43 [+]          
1 25039U 97069A   15336.50324674  .00000340  00000-0  11451-3 0  9991
2 25039  86.3990 257.1227 0001971  85.6189 274.5232 14.34214174945663
IRIDIUM 41 [+]          
1 25040U 97069B   15336.17503758  .00000317  00000-0  10606-3 0  9993
2 25040  86.3980 257.2326 0002149  78.4293  60.8999 14.34213062945615
IRIDIUM 40 [+]          
1 25041U 97069C   15336.45248166  .00000322  00000-0  10784-3 0  9997
2 25041  86.3985 257.3401 0001741 114.8855 245.2522 14.34220303945675
IRIDIUM 39 [+]          
1 25042U 97069D   15336.52861034  .00000027  00000-0  25587-5 0  9992
2 25042  86.3997 257.3494 0002273  77.5924 282.5526 14.34218024945668
IRIDIUM 38 [-]          
1 25043U 97069E   15336.54652640  .00000260  00000-0  82917-4 0  9994
2 25043  86.3984 254.9252 0001797  52.5293  49.4160 14.35885223945994
IRIDIUM 42 [-]          
1 25077U 97077A   15336.47531201  .00000210  00000-0  67478-4 0  9991
2 25077  86.3984 257.1389 0002000  81.4203 278.7219 14.34427872941525
IRIDIUM 44 [-]          
1 25078U 97077B   15336.18076005  .00000289  00000-0  89274-4 0  9990
2 25078  86.3990 248.2201 0001677  35.7449 106.1479 14.37955948942728
IRIDIUM 45 [+]          
1 25104U 97082A   15336.37884095  .00000041  00000-0  75705-5 0  9994
2 25104  86.3959 162.5227 0002073  45.2251 314.9113 14.34217749939702
IRIDIUM 24 [-]          
1 25105U 97082B   15336.25392389  .00000248  00000-0  72928-4 0  9994
2 25105  86.3924 113.1676 0012998  46.3364   4.7710 14.39699093941867
IRIDIUM 47 [+]          
1 25106U 97082C   15336.41230639  .00000074  00000-0  19309-4 0  9993
2 25106  86.3951 130.6152 0002149  90.3886 296.5042 14.34217359939701
IRIDIUM 49 [+]          
1 25108U 97082E   15336.28956515  .00000070  00000-0  17997-4 0  9995
2 25108  86.3953 130.7543 0002102  90.6338 317.4720 14.34215911939690
IRIDIUM 52 [+]          
1 25169U 98010A   15336.10027947  .00000303  00000-0  10128-3 0  9990
2 25169  86.3993 225.7038 0001980  85.6490 274.4932 14.34218073931074
IRIDIUM 56 [+]          
1 25170U 98010B   15336.44277427  .00000321  00000-0  10767-3 0  9998
2 25170  86.4003 225.6634 0002046  76.1181 284.0242 14.34218994931103
IRIDIUM 54 [+]          
1 25171U 98010C   15336.05587951  .00000298  00000-0  99226-4 0  9993
2 25171  86.3994 225.7403 0001979  85.5540 274.5882 14.34217212931212
IRIDIUM 50 [+]          
1 25172U 98010D   15336.04288449  .00000296  00000-0  98605-4 0  9991
2 25172  86.3993 225.7050 0002044  87.0102  42.4341 14.34217810931042
IRIDIUM 53 [+]          
1 25173U 98010E   15336.40852446  .00000277  00000-0  91821-4 0  9998
2 25173  86.3992 225.5583 0001975  85.6034  32.3352 14.34218007931107
IRIDIUM 51 [S]          
1 25262U 98018A   15336.54082457  .00000255  00000-0  84146-4 0  9995
2 25262  86.3981 194.1573 0002145  89.2240 270.9202 14.34217985930515
IRIDIUM 61 [+]          
1 25263U 98018B   15336.50276657  .00000177  00000-0  56055-4 0  9990
2 25263  86.3983 194.0281 0002026  86.6190 273.5237 14.34216566926219
IRIDIUM 55 [+]          
1 25272U 98019A   15336.01731014  .00000048  00000-0  10018-4 0  9996
2 25272  86.3960 162.4513 0002050  88.9683 271.1747 14.34218280925348
IRIDIUM 57 [+]          
1 25273U 98019B   15336.06171310  .00000040  00000-0  72602-5 0  9999
2 25273  86.3964 162.7148 0002061  89.0951 271.0481 14.34217554925350
IRIDIUM 58 [+]          
1 25274U 98019C   15336.41689510  .00000031  00000-0  40534-5 0  9994
2 25274  86.3965 162.7475 0002122  88.0120 272.1319 14.34217931925407
IRIDIUM 59 [+]          
1 25275U 98019D   15336.28370555  .00000031  00000-0  40623-5 0  9995
2 25275  86.3961 162.6870 0002113  91.8500 268.2938 14.34216621925381
IRIDIUM 60 [+]          
1 25276U 98019E   15336.29004586  .00000041  00000-0  75992-5 0  9993
2 25276  86.3958 162.3260 0002035  89.1284 271.0145 14.34217729925382
IRIDIUM 62 [+]          
1 25285U 98021A   15336.39103368  .00000282  00000-0  93589-4 0  9993
2 25285  86.3966  99.1979 0002147  93.4569 266.6873 14.34211724924356
IRIDIUM 63 [-]          
1 25286U 98021B   15336.20696390  .00000210  00000-0  67368-4 0  9993
2 25286  86.3993  99.6439 0002257  97.0054 311.6906 14.34532724924336
IRIDIUM 64 [+]          
1 25287U 98021C   15336.19441221  .00000268  00000-0  88734-4 0  9996
2 25287  86.3967  99.3177 0001908  97.2785 262.8628 14.34211519924300
